#aV2011  5 10  0  0   .00000000      96 DD+AD WGS84 FIT  NGA
## 1635 172800.00000000   900.00000000 55691  .0000000000000
+   31     2  3  4  5  6  7  8  9 10 11 12 13 14 15 16 17 18
+         19 20 21 22 23 24 25 26 27 28 29 30 31 32  0  0  0
+          0  0  0  0  0  0  0  0  0  0  0  0  0  0  0  0  0
+          0  0  0  0  0  0  0  0  0  0  0  0  0  0  0  0  0
+          0  0  0  0  0  0  0  0  0  0  0  0  0  0  0  0  0
++         0  0  0  0  0  0  0  0  0  0  0  0  0  0  0  0  0
++         0  0  0  0  0  0  0  0  0  0  0  0  0  0  0  0  0
++         0  0  0  0  0  0  0  0  0  0  0  0  0  0  0  0  0
++         0  0  0  0  0  0  0  0  0  0  0  0  0  0  0  0  0
++         0  0  0  0  0  0  0  0  0  0  0  0  0  0  0  0  0
%c cc cc ccc ccc cccc cccc cccc cccc ccccc ccccc ccccc ccccc
%c cc cc ccc ccc cccc cccc cccc cccc ccccc ccccc ccccc ccccc
%f  0.0000000  0.000000000  0.00000000000  0.000000000000000
%f  0.0000000  0.000000000  0.00000000000  0.000000000000000
%i    0    0    0    0      0      0      0      0         0
%i    0    0    0    0      0      0      0      0         0
/*      NGA, ST. LOUIS,MO.                                  
/*   EPHEMERIS COMPUTED FROM  3 DAYS OF DATA                
/* CCCCCCCCCCCCCCCCCCCCCCCCCCCCCCCCCCCCCCCCCCCCCCCCCCCCCCCCC
/* CCCCCCCCCCCCCCCCCCCCCCCCCCCCCCCCCCCCCCCCCCCCCCCCCCCCCCCCC
*  2011  5 10  5 30   .00000000                                                 
P  2 -13605.790978 -23123.293366    321.939233    335.528429                    
V  2   2819.262701  -1284.305943  30946.360199       .020933                    
P  3  15132.675680  12147.957351 -18681.090167    713.114277                    
V  3 -22485.859861   4532.653327 -15297.190205       .050608                    
P  4  -3413.078034 -23255.205308  11818.107339    111.342158                    
V  4  10566.575020  11805.956110  26174.714067       .105171                    
P  5  -6861.767387 -16261.452797 -19833.544600   -157.340737                    
V  5  13633.278249 -21229.291767  12801.879254      -.057363                    
P  6  10556.490333  14053.521708 -19812.369129    479.482114                    
V  6 -25434.761930   2632.214572 -11366.156502      -.964222                    
P  7  11495.352946  -9779.083637 -21837.782396     10.533189                    
V  7  13961.231817  23938.476232  -3574.863684       .011529                    
P  8   4732.947689 -18139.266490 -18551.083328      7.901946                    
V  8  11231.024961  20945.266399 -18123.545830       .000622                    
P  9 -18362.989256 -10004.765339  15825.933310     78.980600                    
V  9  -9524.904352 -18871.211455 -22210.515425       .024082                    
P 10   6474.134142 -23820.883343  -9502.755899      -.121158                    
V 10   8812.721635  -8577.916921  28508.551975      -.013774                    
P 11  22128.944155   9054.300058  11591.524494   -149.568162                    
V 11   7841.570033  13710.552936 -24640.464975      -.031543                    
P 12 -17013.846014   1633.729947  20305.191167     -5.695302                    
V 12  12366.300817 -22594.419598  12365.725701       .027231                    
P 13  23433.681761  -5618.879739 -11380.341996    271.413283                    
V 13  13995.130881   2677.117788  27796.427574      -.021478                    
P 14  -7457.220101  13928.772059  21481.638024    149.073241                    
V 14 -26800.116832  -2075.356228  -8151.501452       .022965                    
P 15 -25276.205249  -4574.141666  -7077.662515   -129.221207                    
V 15   8909.935167  -3032.785442 -29676.167195       .026376                    
P 16   5115.099073  16952.514331 -19671.676963   -171.048734                    
V 16 -14277.349685  20663.481614  14372.853739      -.026496                    
P 17   7440.491429 -14511.702684  21061.893845    184.329677                    
V 17  26434.803400   1591.200272  -8515.807969      -.000279                    
P 18 -16281.139985  20045.135981  -4970.910624    136.201567                    
V 18    105.445286  -7857.475585 -30509.791656       .019760                    
P 19  23308.203081   8781.703926  -9711.773946   -139.020864                    
V 19 -12374.470621   1304.682678 -28173.217153      -.039563                    
P 20  18289.126804  -5835.601866  18183.435709     49.232388                    
V 20  -9213.540566  21709.342597  16165.175059       .001892                    
P 21 -11007.588973  11710.617405 -20656.333713   -143.210288                    
V 21 -14375.805184 -23330.067409  -6069.018567      -.026132                    
P 22  -9517.086340  24088.793534   5790.690401    148.969325                    
V 22  -6866.558182   4258.408323 -29983.232839      -.004296                    
P 23  26709.665109   1036.236180   1079.907219    307.537580                    
V 23  -1384.039425   2394.000280  31567.661424      -.026424                    
P 24  18218.757988   7077.533946  18166.639350    388.653333                    
V 24   8970.868013  21115.783304 -16995.738059       .032857                    
P 25 -18148.054327  14936.586966  12326.606462      -.303393                    
V 25   5669.890334 -14799.548696  26265.445640       .007948                    
P 26 -16897.207836 -12555.076837 -17036.187755    -26.075278                    
V 26  20291.541223    660.151388 -20973.522226      -.108883                    
P 27 -19162.074800 -14240.692695  12630.478765    263.495509                    
V 27  -6837.469553 -13249.521177 -26404.550146       .037226                    
P 28  12266.141423 -23261.116115   3054.900567     36.809551                    
V 28   3897.227537  -1400.153949 -31915.467151       .024839                    
P 29 -24868.779884   4628.181861  -7945.088937    206.329692                    
V 29 -10102.767686  -3043.030890  29596.851647       .028859                    
P 30   -408.112760  22563.298379 -14393.368377    343.074384                    
V 30  -9935.032543  14659.800618  23979.463050       .027757                    
P 31   5372.969348  23787.584820  10457.868472     78.187291                    
V 31  -8206.008189 -10326.995777  28455.056333       .054843                    
P 32  15410.260529   4368.367854  21409.862108   -251.063110                    
V 32 -14624.341984  22252.545421   6473.523787      -.072506                    
EOF
